Governorate,Name,Address,City,Phone,Email
Ariana,LA SOUKRA,Av. UMA 2036 La Soukra,Ariana,70 680 813,hichem.ktatni@amenbank.com.tn
Ariana,DAR FADHAL,Immeuble ADONIS  Av. Mongi Slim   Route de la Soukra    Dar Fadhal,Ariana,31 178 649,souhaib.benmaad@amenbank.com.tn
Ariana,ARIANA,Av Ali Belhaouane Cité les roses Ariana,Ariana,71 715 903,chafik.benmokhtar@amenbank.com.tn
Ariana,EL MENZAH VI,Cité Jamil Ariana,Ariana,71 767 022,walid.triki@amenbank.com.tn
Ariana,ENNASR II,Angle Av. Hédi Nouire et nouvelle ère,Ariana,71 828 700,sabri.chine@amenbank.com.tn
Ariana,ARIANA CENTRE,"15, Av 18 Janvier 1952 2080  Ariana  Ariana Tunisie",Ariana,71 705 369,chekib.hassen@amenbank.com.tn
Ariana,ENNASR,"Imm. Les Violettes, Angle  Av. Hédi Nouira et Rue Chedly Ben Abdallah  Cité Ennasr II",Ariana,71 818 374,neira.lassoued@amenbank.com.tn
Ariana,CARNOY,12 Avenue de la Liberté El Menzah  V    2091     Ariana,Ariana,71 238 941,olfa.baananou@amenbank.com.tn
Ariana,RAOUED,"Résidence Merian 2, Avenue Fethi Zouheir Route de Raoued  Km2 2083  Cité El Ghazala",Ariana,71 858 470,marouane.saaid@amenbank.com.tn
Ariana,RIADH EL ANDALOUS,Local  N°1  au RDC  Résidence Echiblia  Cité El Ghazala   GP8 Riadh El Andalous,Ariana,70 823 730,mounir.fellah@amenbank.com.tn
Ariana,ETTADHAMEN,Route de Bizerte (MC31) Cité Ennasr M'nihla   Tunisie,Ariana,70 564 490,mondher.benkhalfallah@amenbank.com.tn
Ariana,BORJ LOUZIR,15 Avenue Mustapha Mohsen - Borj Louzir  ARIANA,Ariana,70 698 170,ramzi.ezzedine@amenbank.com.tn
Ariana,SIDI THABET,Av. 14 Janvier 2011 Ariana,Ariana,70 553 703,radhouane.chihaoui@amenbank.com.tn
Ariana,KALAAT LANDALOUS,1 bis av Habib Bourguiba Ariana,Ariana,71 558 488,faouzi.ghamgui@amenbank.com.tn
Ariana,MNIHLA,Angle de la route MC 31 & la rue Jaafar El BARMAKI MNIHLA 2094,Ariana,70 564 921,ali.mlaouah@amenbank.com.tn
Béja,BEJA,Avenue Habib Bourguiba  Beja,Béja,78 450 020,ferid.hamraoui@amenbank.com.tn
Ben Arous,BEN AROUS,"80, av. de France Ben Arous",Ben Arous,71 384 122,naceur.brinis@amenbank.com.tn
Ben Arous,HAMMAM LIF,"52, Av. de la République Ben Arous",Ben Arous,71 439 943,mohamed.bouzid@amenbank.com.tn
Ben Arous,RADES,Av. Mohamed Ali - Cité les jasmins Ben Arous,Ben Arous,71 442 700,bakr.gharbi@amenbank.com.tn
Ben Arous,MEGRINE,Angle av. H.Bourguiba & Rue L.Haddad Ben Arous,Ben Arous,71 428 317,marouane.troudi@amenbank.com.tn
Ben Arous,EL MOUROUJ,Av. des Martyrs  El Mourouj 1,Ben Arous,71 364 999,bacem.idani@amenbank.com.tn
Ben Arous,EL MGHIRA,Z I El Mghira  II 2082 Fouchana,Ben Arous,79 408 422,mohamedali.oueslati@amenbank.com.tn
Ben Arous,RADES PORT,Port de Rades,Ben Arous,71 449 700,maher.elfehayel@amenbank.com.tn
Ben Arous,BOUMHEL,Résidence  Dalya -Immeuble Marwa -Angle de l'Avenue de l'Environnement et la rue Gluton 2097  Boumhal   Ben Arous,Ben Arous,71 291 610,hamdi.bensalah@amenbank.com.tn
Ben Arous,EZZAHRA,"Rez de chaussée du bloc A, Complexe immobilier Ramses donnant sur l'avenue H. Bourguiba - EZZAHRA",Ben Arous,79 486 594,houssem.bensaid@amenbank.com.tn
Ben Arous,BORJ CEDRIA,"Résidence  Corail  I,  Borj Cedria",Ben Arous,79 326 250,moezeddine.hamadi@amenbank.com.tn
Ben Arous,El MOUROUJ IV,"Résidence Hédia, Av. de la République El Mourouj IV Tunisie",Ben Arous,71 475 767,hatem.khelil@amenbank.com.tn
Ben Arous,MORNAG,Avenue Habib Bourguiba  Mornag    2090,Ben Arous,71 361 146,taoufik.nasri@amenbank.com.tn
Ben Arous,NOUVELLE MEDINA,RDC Bloc B complexe,Ben Arous,71 315 155,abdelmonem.ghozzi@amenbank.com.tn
Ben Arous,MORNAGUIA,03 Avenue Habib Bourguiba  Mornaguia 2071,Ben Arous,71 550 420,rached.ghamissou@Amenbank.com.tn
Bizerte,BIZERTE,"99, av. Habib Bourguiba Bizerte",Bizerte,72 431 668,naim.benkhlifa@amenbank.com.tn
Bizerte,MENZEL BOURGUIBA,Immeuble Aziz Center Avenue  3 Août  Menzel Bourguiba,Bizerte,72 518 610,abdelwaheb.bouchoucha@amenbank.com.tn
Gabes,GABES JARA,Av. Habib Bourguiba Gabes,Gabes,75 276 066,haythem.baccar@amenbank.com.tn
Gabes,MARETH,Rue d'Alger Gabes,Gabes,75 236 300,mohamed.louhichi@amenbank.com.tn
Gabes,GHANNOUCH,Av. Tahar Haddad N° 326 Gabes,Gabes,75 225 164,sofiene.lamouchi@amenbank.com.tn
Gafsa,GAFSA,Rue Amor Ben Slimane  Gafsa,Gafsa,76 228 432,marouen.abboud@amenbank.com.tn
Jendouba,JENDOUBA,"15, Avenue  Ali  Belhaouane   Jendouba",Jendouba,78 610 000,bilel.amri@amenbank.com.tn
Kairouan,KAIROUAN,Rue 2 Mars 1934 Kairouan,Kairouan,77 232 860,abderrazak.madani@amenbank.com.tn
Kasserine,KASSERINE,Avenue Habib Bourguiba  -  Kasserine,Kasserine,77 472 800,kamel.elbouabidi@amenbank.com.tn
Kasserine,SBEITLA,Rue Essalloum  SBEITLA  1250,Kasserine,77 467 691,ali.aloui@amenbank.com.tn
Kebili,KEBILI,Place de l'independance  Avenue de la victoire  Kebili,Kebili,75 494 395,mouhib.khelifi@amenbank.com.tn
Kef,LE KEF,Avenue Habib Bourguiba n°3 7100 le Kef,Kef,31 102 758,borhen.bouslah@amenbank.com.tn
Mahdia,MAHDIA,"104, Av Habib Bourguiba Mahdia",Mahdia,73 680 888,nader.elghoul@amenbank.com.tn
Mahdia,EL JEM,Rue Jamaa El Kébir  Cité Sidi Amor  El Jem,Mahdia,73 633 699,mejdi.trabelsi@amenbank.com.tn
Mahdia,KSOUR ESSAF,Angle de la rue Ali  Bouzidi et de l'avenue Habib Thameur - Ksour Essaf,Mahdia,73 621 333,mohsen.betbout@amenbank.com.tn
Manouba,MANOUBA,"73, AVENUE HABIB BOURGUIBA MANOUBA-VILLE- 2010",Manouba,70 604 050,marouane.troudi@amenbank.com.tn
Manouba,JEDAIDA,"13, Av.Taieb M'hiri Ariana",Manouba,71 638 510,faycal.bennasr@amenbank.com.tn
Manouba,DOUAR HICHER,RDC  Immeuble Av. Khaled ibn El oualid  2086 DAOUR HICHER,MANOUBA,71 620 770,mohamed.fadhlaoui@amenbank.com.tn
Mednine,JERBA HOUMT SOUK,Av. Habib Bourguiba Medenine,Mednine,75 652 666,nabil.benguirat@amenbank.com.tn
Mednine,JERBA EL MAY,Rte Mahboubine Medenine,Mednine,75 676 243,nabil.benyoussef@amenbank.com.tn
Mednine,JERBA MIDOUN,Av. Farhat Hached Rte Mahboubine Medenine,Mednine,75 657 666,adel.besrour@amenbank.com.tn
Mednine,JERBA AJIM,Av. Habib Bourguiba Medenine,Mednine,75 655 074,mohamed.bennasr@amenbank.com.tn
Mednine,MEDENINE,Seniet Essoud lot N° 12 Medenine,Mednine,75 640 879,iadh.ghrab@amenbank.com.tn
Mednine,ZARZIS,Av. Mohamed V Medenine,Mednine,75 680 850,KhenissiA@Amenbank.local
Monastir,KSAR HELLAL,Place de l'indépendance Monastir,Monastir,73 472 995,aymen.bencheikh@amenbank.com.tn
Monastir,MONASTIR,Cité CNRPS Rte de Kairouan Monastir,Monastir,73 464 433,maher.hattab@amenbank.com.tn
Nabeul,SOLIMAN,Av. H.Bourguiba  - Rte Menzel Bouzelfa,Nabeul,72 792 730,ezzedine.hanzouti@amenbank.com.tn
Nabeul,NABEUL,"Immeuble Amen  Bank - 47, Av. Habib Thameur Nabeul",Nabeul,72 286 000,atef.benslimene@amenbank.com.tn
Nabeul,GROMBALIA,Av. Habib Bourguia,Nabeul,72 255 978,mohamed.mehrez@amenbank.com.tn
Nabeul,KELIBIA,Rue Ibn Khaldoun Nabeul,Nabeul,72 296 372,atef.benslimene@amenbank.com.tn
Nabeul,BENI KHIAR,Av Habib Bourguiba Nabeul,Nabeul,72 229 015,mohamed.errayes@amenbank.com.tn
Nabeul,HAMMAMET,Av. Habib Bourguiba Nabeul,Nabeul,72 281 218,tarek.laajimi@amenbank.com.tn
Nabeul,KORBA,Centre commercial SITKO 8070  Korba  Nabeul Tunisie,Nabeul,72 388 855,amine.banna@amenbank.com.tn
Nabeul,DAR CHAABANE,AVENUE Med Hédi  Khefacha 8011  Dar  Chaabane  El Fehri  Nabeul Tunisie,Nabeul,72 320 020,hela.dehmani@amenbank.com.tn
Nabeul,MENZEL TEMIME,Angle av. H. Bourguiba & Taieb M'hiri Nabeul,Nabeul,72 300 451,mohamed.zhioua@amenbank.com.tn
Nabeul,HAMMAMET MARINA,Complexe commercial La Marina Hammamet Sud 8057  8057 Hammamet Yasmine Tunisie,Nabeul,72 241 855,mohamed.essid@amenbank.com.tn
Nabeul,MREZGUA,Angle impasse Azmour et Route Hammamet  - Nabeul MC 28,Nabeul,72 261 225,emna.youssef@amenbank.com.tn
Nabeul,MENZEL BOUZELFA,Avenue Habib Bourguiba   Menzel  Bouzelfa  8010,Nabeul,72 254 111,mohamed.khefifi@amenbank.com.tn
Seliana,SELIANA,Avenue de la République SILIANA 6100,Seliana,78 872 972,iheb.askri@amenbank.com.tn
Sfax,SFAX CHAKER,Av. Hédi Chaker Sfax,Sfax,74 220 138,ahmed.turki@amenbank.com.tn
Sfax,SFAX MEDINA,"2, 4, 6 Rue Mallek Sfax",Sfax,74 228 809,haithem.dammak@amenbank.com.tn
Sfax,SFAX GREMDA,Route Gremda   Km  1    Sfax,Sfax,74 246 098,sofiane.ellouze@amenbank.com.tn
Sfax,SFAX ARIANA,Rte Tunis Km 1 Sfax,Sfax,74 225 660,mohamed.abid@amenbank.com.tn
Sfax,SFAX POUDRIERE,"Z I Poudrière, Rte Sidi Mansour Sfax",Sfax,74 212 060,Mourad.Masmoudi@Amenbank.com.tn
Sfax,SFAX THYNA,Route de Gabes km 1 angle av de l´environnement 3003  Sfax  Sfax Tunisie,Sfax,74 463 222,abdellatif.bouaziz@amenbank.com.tn
Sfax,SFAX EL JEDIDA,Av. des Martyrs Sfax,Sfax,74 296 189,nizar.daoud@amenbank.com.tn
Sfax,MENZEL CHAKER,Markez Essallami Sfax,Sfax,74 285 292,mehdi.benayed@amenbank.com.tn
Sfax,SFAX CEINTURE,"Route Menzel Chaker Km3, Imm. Résidence les Coupoles, à Proximité du magasin promogro",Sfax,74 625 230,badr.medhioub@amenbank.com.tn
Sfax,SFAX NASRIA,Rte de Gremda Km 1 Sfax,Sfax,74 418 152,slim.mazzouz@amenbank.com.tn
Sfax,SFAX SAKIET EDDAIR,"Immeuble Chaabane - Route de Mahdia - Km 5,5 - Sakiet Eddaier",Sfax,74 890 176,ali.ouerghemmi@amenbank.com.tn
Sfax,SFAX AEROPORT,Résidence Sana  route de l'Aéroport  Km2  - 3000  Sfax,Sfax,74 460 705,jamel.ennaifer@amenbank.com.tn
Sfax,SFAX CHIHIA,Route Tennour   Km  5.5   CHIHIA,Sfax,74 850 132,Wassim.Daoud@amenbank.com.tn
Sfax,SFAX LAFRANE,"Immeuble AIPINIA , 3054 route Lafrane Km 4",Sfax,74 611 687,mahmoud.hakim@amenbank.com.tn
Sfax,SFAX SKIET EZZIT,Avenue Hédi Chaker 3021 SFAX SAKIET EZZIT,Sfax,74 250 185,omar.driss@amenbank.com.tn
Sfax,CAF Sfax,"10, rue Habib Thameur - 3000 Sfax",Sfax,74 297 314,mehdi.mohamed@amenbank.com.tn
Sidi Bouzid,SIDI BOUZID,Complexe  Moulde  Centre  Avenue  Mohamed Bouazizi 9100  Sidi Bouzid,Sidi Bouzid,76 627 590,ramzi.ajlani@amenbank.com.tn
Sousse,SOUSSE PORT,Av. Mohamed V Sousse,Sousse,73 224 029,adel.cherif@amenbank.com.tn
Sousse,HAMMAM SOUSSE,251 Rte de Tunis El Menchia Sousse,Sousse,73 240 480,hassene.gandouz@amenbank.com.tn
Sousse,SOUSSE SENGHOR,Avenue de la République 4000 Sousse,Sousse,73 211 050,wahib.nabi@amenbank.com.tn
Sousse,SOUSSE KHEZAMA,Bd  7 Novembre - Rt Touristique,Sousse,73 272 072,mohamedamine.essid@amenbank.com.tn
Sousse,MSAKEN,Av. Dr. T. Hachicha GP1 Sousse,Sousse,73 258 444,hafedh.benamor@amenbank.com.tn
Sousse,SIDI ABDELHAMID,Rez de chaussée Imm SPROLS N°A3 (local C1 + C2) Sidi Abdelhamid,Sousse,73 321 338,yassine.abdelkarim@amenbank.com.tn
Sousse,SOUSSE ERRIADH,Route de la ceinture Sousse,Sousse,73 303 956,akram.boudaya@amenbank.com.tn
Sousse,SAHLOUL,Angle Avenue Yasser Arrafet & rue de Turquie Sahloul  4054,Sousse,73 822 992,wiem.zmanter@amenbank.com.tn
Sousse,KALAA KEBIRA,Avenue Farhat Hached  Kalaa Kebira  4060,Sousse,73 317 777,ahmed.karoui@amenbank.com.tn
Sousse,MOKNINE,"Avenue des Martyrs, Immeuble foyer universitaire Ennajah",SOUSSE,73 438 308,mounir.fellah@amenbank.com.tn
Sousse,JAMMEL,"44, Aenue Béchir Sfar  5010  Jammel",SOUSSE,73 484 310,mohamedali.trabelsi@amenbank.com.tn
Sousse,SAHLINE,Avenue Ali Bellahouane  Sahlline,SOUSSE,73 528 125,mohamed.benabdejelil@amenbank.com.tn
Sousse,ENFIDHA,"RDC zone U8, BD de l'environnement, Cité Med Ali  Enfidha",Sousse,73 381 950,sabri.benmohamed@amenbank.com.tn
Sousse,SOUSSE MALL,"Centre Commerciale - Mall Of Sousse Kalaa Kebira RN1, 4060 Sousse",sousse,73 815 100,hassen.bane@amenbank.com.tn
Sousse,Centre d'affaires Sousse,"Boulevard 14 janvier 2011, Sousse",Sousse,73 205 684,slim.trabelsi@amenbank.tn
Tataouine,TATAOUINE,Angle Av. Farhat Hached & 1er Janvier- Tataouine,Tataouine,75 862 064,samir.ghrab@amenbank.com.tn
Tozeur,TOZEUR,Av.  Farhat Hached 2200  Tozeur,Tozeur,76 460 456,salem.gammar@amenbank.com.tn
Tunis,Centre d'affaires MOHAMED V,Avenue Mohamed V Tunis,Tunis,71 148 051,sami.bettaieb@amenbank.com.tn
Tunis,KEIREDDINE PACHA,41 av. Kheireddine Pacha Tunis,Tunis,71 906 657,hassene.benmoulahem@amenbank.com.tn
Tunis,MANDELA,"Siège social Amen Bank, Angle Rue de Jordanie et Avenue Mohamed V 1002 Tunis",Tunis,71 835 500,tarek.ktata@amenbank.com.tn
Tunis,LAFAYETTE,Angle rue d'Iran & rue Ibn Jazzar Tunis,Tunis,71 783 120,fahmi.ingazou@amenbank.com.tn
Tunis,MONTPLAISIR,RDC Rue du Japan Monplaisir Complexe,Tunis,71 904 686,mohamedamine.derbal@amenbank.com.tn
Tunis,PLACE PASTEUR,"150,av. de la liberté 1001  Tunis",Tunis,71 780 741,sahbi.mehrez@amenbank.com.tn
Tunis,LES OLYMPIADES,Cité Olympique Imm Ben Mahmoud 1 Tunis,Tunis,71 789 253,mohamed.nigro@amenbank.com.tn
Tunis,CHARGUIA,"5, rue 8612, Z.I La charguia 1 Tunis",Tunis,71 205 159,jaouhar.fekih@amenbank.com.tn
Tunis,LES BERGES  DU LAC,Cité El Habib Les Berges du Lac Tunis,Tunis,71 761 886,anis.bensaid@amenbank.com.tn
Tunis,LES BERGES DU LAC II,Rue Lac Turkana - Résidence Marjène 1053  Les Berges du Lac - 1053 Tunisie,Tunis,71 961 782,khalil.azzouz@amenbank.com.tn
Tunis,CHARGUIA II,Angle rue des métiers et rue des entrepreneurs Charguia 2 Z.I Soukra Aéroport,Tunis,71 942 517,mohamedali.haddar@amenbank.com.tn
Tunis,ALAIN SAVARY,Résid Alain Savary - Av. Alain Savary Tunis,Tunis,71 770 255,nizar.benahmed@amenbank.com.tn
Tunis,CENTRE URBAIN NORD,"Centre Urbain Nord, AV. 14 Janvier 2011",Tunis,70 728 470,chiraz.seini@amenbank.com.tn
Tunis,LES JARDINS DU LAC,RDC Imm Rosalys en face de l'ambassade des USA aux jardins du lac II et derrière le siège d'ORASCOM,Tunis,71 197 022,hassen.Njeh@amenbank.com.tn
Tunis,LES PINS,Cité Les Pins - Les Berges du Lac II  1054,Tunis,71 267 537,MohamedHedi.Malleh@amenbank.com.tn
Tunis,LAC MALL,Entrée N°2 du Rez de chaussée du Centre Commercial Tunisa Mall 1054,Tunis,71 669 383,mariem.soufi@amenbank.com.tn
Tunis,DR BURNET,"39, rue du Dr Burnet Mutuelleville Tunis",Tunis,71 792 729,hamza.oueslati@amenbank.com.tn
Tunis,EL MENZAH I,Angle R. Errassas & R. Hamidi Tunis,Tunis,71 752 582,amine.bejaoui@amenbank.com.tn
Tunis,EL MANAR,Centre le Paradis d' El Manar Tunis,Tunis,71 885 595,mahmoud.hafsi@amenbank.com.tn
Tunis,El MANAR  CAMPUS,Avenue AbdelAziz Al Saoud  EL MANAR II 2080,Tunis,71 885 200,zied.laabidi@amenbank.com.tn
Tunis,LES JARDINS D'EL MENZAH,Cité Jamil El Menzah VI,Tunis,71 887 711,moez.benothman@amenbank.com.tn
Tunis,LES JARDINS D'EL MENZAH II,Résidence CORDOBA - Les Jardins D'El Menzah II,Tunis,31 156 539,nadia.ajili@amenbank.com.tn
Tunis,PLACE BARCELONE,"74,av. Farhat Hached Tunis",Tunis,71 336 024,samir.kouni@amenbank.com.tn
Tunis,LE PASSAGE,Angle Av. de Paris & Av. H. Thameur Tunis,Tunis,71 348 422,adel.essid@amenbank.com.tn
Tunis,TAIEB M´HIRI,"51 bis, Av. Taieb M'hiri Tunis Tunis",Tunis,71 797 700,rafik.fezzani@amenbank.com.tn
Tunis,BAB EL ALOUJ,"2, Rue Testour  Tunis Tunis",Tunis,71 565 602,wassim.gueriri@amenbank.com.tn
Tunis,EL OMRANE,"41, Bd Hédi Saidi Tunis",Tunis,71 897 106,mohamed.elhammi@amenbank.com.tn
Tunis,BAB  EL KHADRA,"4, Bd Bechir SFAR/7, R. de la verdure Tunis",Tunis,71 561 253,nebil.benyedder@amenbank.com.tn
Tunis,MONTFLEURY,"57, Av. du Sahel Tunis",Tunis,71 397 700,karim.jenayah@amenbank.com.tn
Tunis,SOUK ETTROUK,"26, Rue Souk Ettrouk  Tunis Tunis",Tunis,71 562 283,slim.achour@amenbank.com.tn
Tunis,BAB JEDID,"55, Bd Bab M'nara Tunis Tunis",Tunis,71 571 638,slah.benhassine@amenbank.com.tn
Tunis,BAB SOUIKA,"24, rue Bab Souika Tunis",Tunis,71 573 909,fethi.gharbi@amenbank.com.tn
Tunis,PLACE 14 JANVIER,"26, av. Habib Bourguiba Tunis",Tunis,71 333 412,anis.ajra@amenbank.com.tn
Tunis,LE KRAM,"204, Av. H. Bourguiba Tunis",Tunis,71 730 253,tarek.laajimi@amenbank.com.tn
Tunis,LA  MARSA,"44, av. Taieb M'hiri Tunis",Tunis,71 748 492,ali.sedraoui@amenbank.com.tn
Tunis,LA MARSA CORNICHE,Avenue Habib Bourguiba  Résidence  Hannabal La Marsa,Tunis,71 983 150,amine.khiri@amenbank.com.tn
Tunis,LES JARDINS DE LA SOUKRA,Immeuble Tanit Center en face de l'hyper marché Carrefour route de la Marsa,Tunis,71 938 500,sami.limam@amenbank.com.tn
Tunis,SIDI BOU SAID,Avenue 14 Janvier 2011 Sidi Bousaid,Tunis,71 980 012,ahmed.benmohamed@amenbank.com.tn
Tunis,CARTHAGE,"Centre commercial, Av. Habib Bourguiba Carthage Dermech",Tunis,71 277 800,moncef.benhassine@amenbank.com.tn
Tunis,L'AOUINA,RDC Résidence Yamour - Avenue Khaled Ibn El Walid  L'Aouina,Tunis,70 737 535,ahmed.dhib@amenbank.com.tn
Tunis,GAMMARTH,"Giratoire de la grande route menant à Gammarth et la route menant aux zones d'Ettabeuk, Bhar Lazrag et Ermila",Tunis,71 917 362,aymen.saddem@amenbank.com.tn
Tunis,LA GOULETTE,Angle Av. Habib Bourguiba et Rue Hédi Chaker  La Goulette,Tunis,71 736 505,moetez.chida@amenbank.com.tn
Tunis,LES JARDINS DE CARTHAGE,Résidence Jupiter sis aux Jardins de Carthage  2016,Tunis,71 266 050,salah.absi@amenbank.com.tn
Tunis,SOUKRA II,Avenue de l'Union du Maghreb Arabe La Soukra Tunisie,Tunis,71 865 555,khaled.gritli@amenbank.com.tn
Tunis,KRAM OUEST,Avenue Med V    Kram Ouest,Tunis,71 978 940,hamdi.bensalah@amenbank.com.tn
Tunis,AVENUE DE FRANCE,"13,av. de France Tunis",Tunis,71 340 511,ahmed.omar@amenbank.com.tn
Tunis,LE BARDO,4 Avenue Habib Bourguiba    Bardo,Tunis,71 517 600,aymen.sahli@amenbank.com.tn
Tunis,ETTAHRIR,Route de Bizerte,Tunis,71 505 416,ahmed.konzali@amenbank.com.tn
Tunis,SIDI H'SSINE,Angle grande route Sidi H'sine et rue N°4877,Tunis,71 935 766,abdelkarim.laouiti@amenbank.com.tn
Tunis,Den Den,Immeuble Den Den Palace - Av. de l'Indépendance  Den Den 2011  La Manouba,Tunis,71 608 700,mehdi.chebl@amenbank.com.tn
Tunis,EL AGBA,Angle Avenue Houcine Dey et la rue 42244 EL AGBA 2011,Tunis,31 101 758,khaled.khemir@amenbank.com.tn
Tunis,AIN ZAGHOUAN,Local  N°11 route de la marsa en bordure de la RN9 en face de l'ambassade des USA,TUNIS,70 855 430,mohamedamine.benhamed@amenbank.com.tn
Tunis,Centre d'Affaires Les Berges du Lac,Avenue Habib Achour et Rue Lac Leman,Tunis,71 148 973,slim.benmansour@amenbank.com.tn
Zaghouan,ZAGHOUAN,1100  Avenue de l'Indépendance Zaghouan,Zaghouan,72 681 002,atef.abbes@amenbank.com.tn
